ISS (ZARYA)             
1 25544U 98067A   26064.70570909  .00008837  00000+0  17141-3 0  9997
2 25544  51.6315  92.0530 0008143 160.3826 199.7477 15.48463204555718
POISK                   
1 36086U 09060A   26064.70570909  .00008837  00000+0  17141-3 0  9995
2 36086  51.6315  92.0530 0008143 160.3826 199.7477 15.48463204555799
CSS (TIANHE)            
1 48274U 21035A   26064.81179226  .00018150  00000+0  21787-3 0  9992
2 48274  41.4658 231.7522 0006853 249.1722 110.8383 15.60440439277002
ISS (NAUKA)             
1 49044U 21066A   26064.70570909  .00008837  00000+0  17141-3 0  9993
2 49044  51.6315  92.0530 0008143 160.3826 199.7477 15.48463204555810
FREGAT DEB              
1 49271U 11037PF  26062.07347650  .00033502  00000+0  49339-1 0  9994
2 49271  51.6509 320.5956 0955180  44.2014 323.1255 12.39774562211870
CSS (WENTIAN)           
1 53239U 22085A   26064.81179226  .00018150  00000+0  21787-3 0  9995
2 53239  41.4658 231.7522 0006853 249.1722 110.8383 15.60440439276660
CSS (MENGTIAN)          
1 54216U 22143A   26064.81179226  .00018150  00000+0  21787-3 0  9996
2 54216  41.4658 231.7522 0006853 249.1722 110.8383 15.60440439276633
PROGRESS-MS 31          
1 64751U 25146A   26064.70570909  .00008837  00000+0  17141-3 0  9998
2 64751  51.6315  92.0530 0008143 160.3826 199.7477 15.48463204555834
TIANZHOU-9              
1 64786U 25149A   26064.81179226  .00018150  00000+0  21787-3 0  9998
2 64786  41.4658 231.7522 0006853 249.1722 110.8383 15.60440439276647
PROGRESS-MS 32          
1 65586U 25204A   26064.70570909  .00008837  00000+0  17141-3 0  9990
2 65586  51.6315  92.0530 0008143 160.3826 199.7477 15.48463204555897
CYGNUS NG-23            
1 65616U 25208A   26064.70570909  .00008837  00000+0  17141-3 0  9998
2 65616  51.6315  92.0530 0008143 160.3826 199.7477 15.48463204555914
ISS OBJECT XK           
1 65731U 98067XK  26064.42288087  .01235340  97089-3  12997-2 0  9993
2 65731  51.6145  68.9863 0004832  74.1567 285.9979 16.09887648 26210
