CCSDS_OMM_VERS = 2.0
CREATION_DATE  = 
ORIGINATOR     = 

OBJECT_NAME    = ISS (ZARYA)
OBJECT_ID      = 1998-067A
CENTER_NAME    = EARTH
REF_FRAME      = TEME
TIME_SYSTEM    = UTC
MEAN_ELEMENT_THEORY = SGP/SGP4

EPOCH          = 2026-03-05T16:56:13.265376
MEAN_MOTION    = 15.48463204
ECCENTRICITY   = .0008143
INCLINATION    = 51.6315
RA_OF_ASC_NODE = 92.0530
ARG_OF_PERICENTER = 160.3826
MEAN_ANOMALY   = 199.7477

EPHEMERIS_TYPE = 0
CLASSIFICATION_TYPE = U
NORAD_CAT_ID   = 25544
ELEMENT_SET_NO = 999
REV_AT_EPOCH   = 55571
BSTAR          = .17141E-3
MEAN_MOTION_DOT = .8837E-4
MEAN_MOTION_DDOT = 0

CCSDS_OMM_VERS = 2.0
CREATION_DATE  = 
ORIGINATOR     = 

OBJECT_NAME    = POISK
OBJECT_ID      = 2009-060A
CENTER_NAME    = EARTH
REF_FRAME      = TEME
TIME_SYSTEM    = UTC
MEAN_ELEMENT_THEORY = SGP/SGP4

EPOCH          = 2026-03-05T16:56:13.265376
MEAN_MOTION    = 15.48463204
ECCENTRICITY   = .0008143
INCLINATION    = 51.6315
RA_OF_ASC_NODE = 92.0530
ARG_OF_PERICENTER = 160.3826
MEAN_ANOMALY   = 199.7477

EPHEMERIS_TYPE = 0
CLASSIFICATION_TYPE = U
NORAD_CAT_ID   = 36086
ELEMENT_SET_NO = 999
REV_AT_EPOCH   = 55579
BSTAR          = .17141E-3
MEAN_MOTION_DOT = .8837E-4
MEAN_MOTION_DDOT = 0

CCSDS_OMM_VERS = 2.0
CREATION_DATE  = 
ORIGINATOR     = 

OBJECT_NAME    = CSS (TIANHE)
OBJECT_ID      = 2021-035A
CENTER_NAME    = EARTH
REF_FRAME      = TEME
TIME_SYSTEM    = UTC
MEAN_ELEMENT_THEORY = SGP/SGP4

EPOCH          = 2026-03-05T19:28:58.851264
MEAN_MOTION    = 15.60440439
ECCENTRICITY   = .0006853
INCLINATION    = 41.4658
RA_OF_ASC_NODE = 231.7522
ARG_OF_PERICENTER = 249.1722
MEAN_ANOMALY   = 110.8383

EPHEMERIS_TYPE = 0
CLASSIFICATION_TYPE = U
NORAD_CAT_ID   = 48274
ELEMENT_SET_NO = 999
REV_AT_EPOCH   = 27700
BSTAR          = .21787E-3
MEAN_MOTION_DOT = .1815E-3
MEAN_MOTION_DDOT = 0

CCSDS_OMM_VERS = 2.0
CREATION_DATE  = 
ORIGINATOR     = 

OBJECT_NAME    = ISS (NAUKA)
OBJECT_ID      = 2021-066A
CENTER_NAME    = EARTH
REF_FRAME      = TEME
TIME_SYSTEM    = UTC
MEAN_ELEMENT_THEORY = SGP/SGP4

EPOCH          = 2026-03-05T16:56:13.265376
MEAN_MOTION    = 15.48463204
ECCENTRICITY   = .0008143
INCLINATION    = 51.6315
RA_OF_ASC_NODE = 92.0530
ARG_OF_PERICENTER = 160.3826
MEAN_ANOMALY   = 199.7477

EPHEMERIS_TYPE = 0
CLASSIFICATION_TYPE = U
NORAD_CAT_ID   = 49044
ELEMENT_SET_NO = 999
REV_AT_EPOCH   = 55581
BSTAR          = .17141E-3
MEAN_MOTION_DOT = .8837E-4
MEAN_MOTION_DDOT = 0

CCSDS_OMM_VERS = 2.0
CREATION_DATE  = 
ORIGINATOR     = 

OBJECT_NAME    = FREGAT DEB
OBJECT_ID      = 2011-037PF
CENTER_NAME    = EARTH
REF_FRAME      = TEME
TIME_SYSTEM    = UTC
MEAN_ELEMENT_THEORY = SGP/SGP4

EPOCH          = 2026-03-03T01:45:48.369600
MEAN_MOTION    = 12.39774562
ECCENTRICITY   = .09551804
INCLINATION    = 51.6509
RA_OF_ASC_NODE = 320.5956
ARG_OF_PERICENTER = 44.2014
MEAN_ANOMALY   = 323.1255

EPHEMERIS_TYPE = 0
CLASSIFICATION_TYPE = U
NORAD_CAT_ID   = 49271
ELEMENT_SET_NO = 999
REV_AT_EPOCH   = 21187
BSTAR          = .49338911E-1
MEAN_MOTION_DOT = .33502E-3
MEAN_MOTION_DDOT = 0

CCSDS_OMM_VERS = 2.0
CREATION_DATE  = 
ORIGINATOR     = 

OBJECT_NAME    = CSS (WENTIAN)
OBJECT_ID      = 2022-085A
CENTER_NAME    = EARTH
REF_FRAME      = TEME
TIME_SYSTEM    = UTC
MEAN_ELEMENT_THEORY = SGP/SGP4

EPOCH          = 2026-03-05T19:28:58.851264
MEAN_MOTION    = 15.60440439
ECCENTRICITY   = .0006853
INCLINATION    = 41.4658
RA_OF_ASC_NODE = 231.7522
ARG_OF_PERICENTER = 249.1722
MEAN_ANOMALY   = 110.8383

EPHEMERIS_TYPE = 0
CLASSIFICATION_TYPE = U
NORAD_CAT_ID   = 53239
ELEMENT_SET_NO = 999
REV_AT_EPOCH   = 27666
BSTAR          = .21787E-3
MEAN_MOTION_DOT = .1815E-3
MEAN_MOTION_DDOT = 0

CCSDS_OMM_VERS = 2.0
CREATION_DATE  = 
ORIGINATOR     = 

OBJECT_NAME    = CSS (MENGTIAN)
OBJECT_ID      = 2022-143A
CENTER_NAME    = EARTH
REF_FRAME      = TEME
TIME_SYSTEM    = UTC
MEAN_ELEMENT_THEORY = SGP/SGP4

EPOCH          = 2026-03-05T19:28:58.851264
MEAN_MOTION    = 15.60440439
ECCENTRICITY   = .0006853
INCLINATION    = 41.4658
RA_OF_ASC_NODE = 231.7522
ARG_OF_PERICENTER = 249.1722
MEAN_ANOMALY   = 110.8383

EPHEMERIS_TYPE = 0
CLASSIFICATION_TYPE = U
NORAD_CAT_ID   = 54216
ELEMENT_SET_NO = 999
REV_AT_EPOCH   = 27663
BSTAR          = .21787E-3
MEAN_MOTION_DOT = .1815E-3
MEAN_MOTION_DDOT = 0

CCSDS_OMM_VERS = 2.0
CREATION_DATE  = 
ORIGINATOR     = 

OBJECT_NAME    = PROGRESS-MS 31
OBJECT_ID      = 2025-146A
CENTER_NAME    = EARTH
REF_FRAME      = TEME
TIME_SYSTEM    = UTC
MEAN_ELEMENT_THEORY = SGP/SGP4

EPOCH          = 2026-03-05T16:56:13.265376
MEAN_MOTION    = 15.48463204
ECCENTRICITY   = .0008143
INCLINATION    = 51.6315
RA_OF_ASC_NODE = 92.0530
ARG_OF_PERICENTER = 160.3826
MEAN_ANOMALY   = 199.7477

EPHEMERIS_TYPE = 0
CLASSIFICATION_TYPE = U
NORAD_CAT_ID   = 64751
ELEMENT_SET_NO = 999
REV_AT_EPOCH   = 55583
BSTAR          = .17141E-3
MEAN_MOTION_DOT = .8837E-4
MEAN_MOTION_DDOT = 0

CCSDS_OMM_VERS = 2.0
CREATION_DATE  = 
ORIGINATOR     = 

OBJECT_NAME    = TIANZHOU-9
OBJECT_ID      = 2025-149A
CENTER_NAME    = EARTH
REF_FRAME      = TEME
TIME_SYSTEM    = UTC
MEAN_ELEMENT_THEORY = SGP/SGP4

EPOCH          = 2026-03-05T19:28:58.851264
MEAN_MOTION    = 15.60440439
ECCENTRICITY   = .0006853
INCLINATION    = 41.4658
RA_OF_ASC_NODE = 231.7522
ARG_OF_PERICENTER = 249.1722
MEAN_ANOMALY   = 110.8383

EPHEMERIS_TYPE = 0
CLASSIFICATION_TYPE = U
NORAD_CAT_ID   = 64786
ELEMENT_SET_NO = 999
REV_AT_EPOCH   = 27664
BSTAR          = .21787E-3
MEAN_MOTION_DOT = .1815E-3
MEAN_MOTION_DDOT = 0

CCSDS_OMM_VERS = 2.0
CREATION_DATE  = 
ORIGINATOR     = 

OBJECT_NAME    = PROGRESS-MS 32
OBJECT_ID      = 2025-204A
CENTER_NAME    = EARTH
REF_FRAME      = TEME
TIME_SYSTEM    = UTC
MEAN_ELEMENT_THEORY = SGP/SGP4

EPOCH          = 2026-03-05T16:56:13.265376
MEAN_MOTION    = 15.48463204
ECCENTRICITY   = .0008143
INCLINATION    = 51.6315
RA_OF_ASC_NODE = 92.0530
ARG_OF_PERICENTER = 160.3826
MEAN_ANOMALY   = 199.7477

EPHEMERIS_TYPE = 0
CLASSIFICATION_TYPE = U
NORAD_CAT_ID   = 65586
ELEMENT_SET_NO = 999
REV_AT_EPOCH   = 55589
BSTAR          = .17141E-3
MEAN_MOTION_DOT = .8837E-4
MEAN_MOTION_DDOT = 0

CCSDS_OMM_VERS = 2.0
CREATION_DATE  = 
ORIGINATOR     = 

OBJECT_NAME    = CYGNUS NG-23
OBJECT_ID      = 2025-208A
CENTER_NAME    = EARTH
REF_FRAME      = TEME
TIME_SYSTEM    = UTC
MEAN_ELEMENT_THEORY = SGP/SGP4

EPOCH          = 2026-03-05T16:56:13.265376
MEAN_MOTION    = 15.48463204
ECCENTRICITY   = .0008143
INCLINATION    = 51.6315
RA_OF_ASC_NODE = 92.0530
ARG_OF_PERICENTER = 160.3826
MEAN_ANOMALY   = 199.7477

EPHEMERIS_TYPE = 0
CLASSIFICATION_TYPE = U
NORAD_CAT_ID   = 65616
ELEMENT_SET_NO = 999
REV_AT_EPOCH   = 55591
BSTAR          = .17141E-3
MEAN_MOTION_DOT = .8837E-4
MEAN_MOTION_DDOT = 0

CCSDS_OMM_VERS = 2.0
CREATION_DATE  = 
ORIGINATOR     = 

OBJECT_NAME    = ISS OBJECT XK
OBJECT_ID      = 1998-067XK
CENTER_NAME    = EARTH
REF_FRAME      = TEME
TIME_SYSTEM    = UTC
MEAN_ELEMENT_THEORY = SGP/SGP4

EPOCH          = 2026-03-05T10:08:56.907168
MEAN_MOTION    = 16.09887648
ECCENTRICITY   = .0004832
INCLINATION    = 51.6145
RA_OF_ASC_NODE = 68.9863
ARG_OF_PERICENTER = 74.1567
MEAN_ANOMALY   = 285.9979

EPHEMERIS_TYPE = 0
CLASSIFICATION_TYPE = U
NORAD_CAT_ID   = 65731
ELEMENT_SET_NO = 999
REV_AT_EPOCH   = 2621
BSTAR          = .12997E-2
MEAN_MOTION_DOT = .123534E-1
MEAN_MOTION_DDOT = .97089E-3

